[{"OBJECT_NAME":"KUIPER-00158","OBJECT_ID":"2025-217Q","EPOCH":"2026-03-09T22:33:12.550176","MEAN_MOTION":14.80564414,"ECCENTRICITY":0.00012036,"INCLINATION":51.899,"RA_OF_ASC_NODE":44.3542,"ARG_OF_PERICENTER":56.9124,"MEAN_ANOMALY":303.1954,"EPHEMERIS_TYPE":0,"CLASSIFICATION_TYPE":"U","NORAD_CAT_ID":65776,"ELEMENT_SET_NO":999,"REV_AT_EPOCH":2488,"BSTAR":0.00081284145,"MEAN_MOTION_DOT":6.074e-5,"MEAN_MOTION_DDOT":0},{"OBJECT_NAME":"SL-14 R\/B","OBJECT_ID":"1990-018B","EPOCH":"2026-03-09T21:46:28.582464","MEAN_MOTION":14.82145209,"ECCENTRICITY":0.00176734,"INCLINATION":82.5203,"RA_OF_ASC_NODE":222.8861,"ARG_OF_PERICENTER":91.4,"MEAN_ANOMALY":268.9239,"EPHEMERIS_TYPE":0,"CLASSIFICATION_TYPE":"U","NORAD_CAT_ID":20511,"ELEMENT_SET_NO":999,"REV_AT_EPOCH":92261,"BSTAR":8.2072718e-5,"MEAN_MOTION_DOT":6.78e-6,"MEAN_MOTION_DDOT":0}]
